start=new Date('2021-11-03T00:00:00.000Z').valueOf();
sats=[{"SITE":"AFETR","CENTER_NAME":"EARTH","REV_AT_EPOCH":"5280","FILE":"3198350","GP_ID":"188775558","COUNTRY_CODE":"US","EPHEMERIS_TYPE":"0","OBJECT_NAME":"STARLINK-1895","OBJECT_ID":"2020-088BF","MEAN_MOTION_DOT":"-0.00000366","INCLINATION":"53.0550","BSTAR":"-0.00000569050000","PERIOD":"95.593","CLASSIFICATION_TYPE":"U","APOAPSIS":"548.379","NORAD_CAT_ID":"47175","DECAY_DATE":null,"ARG_OF_PERICENTER":"58.4699","REF_FRAME":"TEME","RA_OF_ASC_NODE":"209.4445","RCS_SIZE":"LARGE","MEAN_MOTION":"15.06387527","PERIAPSIS":"546.125","SEMIMAJOR_AXIS":"6925.387","ELEMENT_SET_NO":"999","ECCENTRICITY":"0.00016270","LAUNCH_DATE":"2020-11-25","MEAN_ELEMENT_THEORY":"SGP4","MEAN_ANOMALY":"301.6449","MEAN_MOTION_DDOT":"0.0000000000000","TLE_LINE2":"2 47175  53.0550 209.4445 0001627  58.4699 301.6449 15.06387527 52805","EPOCH":"2021-11-02T21:44:35.354400","OBJECT_TYPE":"PAYLOAD","TIME_SYSTEM":"UTC","TLE_LINE1":"1 47175U 20088BF  21306.90596475 -.00000366  00000-0 -56905-5 0  9996"},{"OBJECT_NAME":"STARLINK-1907","OBJECT_ID":"2020-088BH","EPHEMERIS_TYPE":"0","MEAN_MOTION_DOT":"0.00000415","INCLINATION":"53.0534","COUNTRY_CODE":"US","CLASSIFICATION_TYPE":"U","BSTAR":"0.00004675100000","PERIOD":"95.592","CENTER_NAME":"EARTH","REV_AT_EPOCH":"5260","FILE":"3198350","SITE":"AFETR","GP_ID":"188773807","LAUNCH_DATE":"2020-11-25","MEAN_MOTION_DDOT":"0.0000000000000","TLE_LINE2":"2 47177  53.0534 221.3206 0001601  69.4070 290.7091 15.06398603 52600","MEAN_ELEMENT_THEORY":"SGP4","MEAN_ANOMALY":"290.7091","PERIAPSIS":"546.109","ELEMENT_SET_NO":"999","SEMIMAJOR_AXIS":"6925.353","ECCENTRICITY":"0.00016010","TLE_LINE1":"1 47177U 20088BH  21306.49221212  .00000415  00000-0  46751-4 0  9996","TIME_SYSTEM":"UTC","OBJECT_TYPE":"PAYLOAD","EPOCH":"2021-11-02T11:48:47.127168","DECAY_DATE":null,"APOAPSIS":"548.327","NORAD_CAT_ID":"47177","MEAN_MOTION":"15.06398603","ARG_OF_PERICENTER":"69.4070","REF_FRAME":"TEME","RCS_SIZE":"LARGE","RA_OF_ASC_NODE":"221.3206"},{"OBJECT_NAME":"STARLINK-1912","OBJECT_ID":"2020-088BJ","EPHEMERIS_TYPE":"0","INCLINATION":"53.0553","MEAN_MOTION_DOT":"-0.00001618","COUNTRY_CODE":"US","CLASSIFICATION_TYPE":"U","BSTAR":"-0.00008977000000","PERIOD":"95.593","CENTER_NAME":"EARTH","REV_AT_EPOCH":"5252","FILE":"3198350","SITE":"AFETR","GP_ID":"188774057","LAUNCH_DATE":"2020-11-25","MEAN_MOTION_DDOT":"0.0000000000000","TLE_LINE2":"2 47178  53.0553 229.3052 0001775  73.0834 287.0349 15.06387623 52526","MEAN_ANOMALY":"287.0349","MEAN_ELEMENT_THEORY":"SGP4","PERIAPSIS":"546.022","SEMIMAJOR_AXIS":"6925.386","ECCENTRICITY":"0.00017750","ELEMENT_SET_NO":"999","TLE_LINE1":"1 47178U 20088BJ  21306.93729610 -.00001618  00000-0 -89770-4 0  9997","OBJECT_TYPE":"PAYLOAD","TIME_SYSTEM":"UTC","EPOCH":"2021-11-02T22:29:42.383040","DECAY_DATE":null,"NORAD_CAT_ID":"47178","APOAPSIS":"548.481","MEAN_MOTION":"15.06387623","ARG_OF_PERICENTER":"73.0834","REF_FRAME":"TEME","RCS_SIZE":"LARGE","RA_OF_ASC_NODE":"229.3052"},{"EPHEMERIS_TYPE":"0","OBJECT_NAME":"STARLINK-1913","OBJECT_ID":"2020-088BK","INCLINATION":"53.0528","MEAN_MOTION_DOT":"-0.00002260","COUNTRY_CODE":"US","CLASSIFICATION_TYPE":"U","BSTAR":"-0.00013293000000","PERIOD":"95.593","REV_AT_EPOCH":"5232","CENTER_NAME":"EARTH","FILE":"3198350","SITE":"AFETR","GP_ID":"188775308","LAUNCH_DATE":"2020-11-25","MEAN_ELEMENT_THEORY":"SGP4","MEAN_ANOMALY":"294.1986","MEAN_MOTION_DDOT":"0.0000000000000","TLE_LINE2":"2 47179  53.0528 241.1557 0001738  65.9185 294.1986 15.06388167 52327","PERIAPSIS":"546.046","SEMIMAJOR_AXIS":"6925.385","ELEMENT_SET_NO":"999","ECCENTRICITY":"0.00017380","TLE_LINE1":"1 47179U 20088BK  21306.52723079 -.00002260  00000-0 -13293-3 0  9996","EPOCH":"2021-11-02T12:39:12.740256","OBJECT_TYPE":"PAYLOAD","TIME_SYSTEM":"UTC","DECAY_DATE":null,"NORAD_CAT_ID":"47179","APOAPSIS":"548.453","MEAN_MOTION":"15.06388167","ARG_OF_PERICENTER":"65.9185","REF_FRAME":"TEME","RA_OF_ASC_NODE":"241.1557","RCS_SIZE":"LARGE"},{"SITE":"AFETR","FILE":"3198350","REV_AT_EPOCH":"5280","CENTER_NAME":"EARTH","GP_ID":"188775059","COUNTRY_CODE":"US","INCLINATION":"53.0542","MEAN_MOTION_DOT":"0.00000711","EPHEMERIS_TYPE":"0","OBJECT_ID":"2020-088BM","OBJECT_NAME":"STARLINK-1927","PERIOD":"95.592","BSTAR":"0.00006664600000","CLASSIFICATION_TYPE":"U","APOAPSIS":"548.323","NORAD_CAT_ID":"47181","DECAY_DATE":null,"RCS_SIZE":"LARGE","RA_OF_ASC_NODE":"209.4856","REF_FRAME":"TEME","ARG_OF_PERICENTER":"80.0412","MEAN_MOTION":"15.06396587","ELEMENT_SET_NO":"999","SEMIMAJOR_AXIS":"6925.359","ECCENTRICITY":"0.00015870","PERIAPSIS":"546.125","MEAN_ANOMALY":"280.0756","MEAN_ELEMENT_THEORY":"SGP4","MEAN_MOTION_DDOT":"0.0000000000000","TLE_LINE2":"2 47181  53.0542 209.4856 0001587  80.0412 280.0756 15.06396587 52805","LAUNCH_DATE":"2020-11-25","EPOCH":"2021-11-02T21:33:57.776832","OBJECT_TYPE":"PAYLOAD","TIME_SYSTEM":"UTC","TLE_LINE1":"1 47181U 20088BM  21306.89858538  .00000711  00000-0  66646-4 0  9996"},{"MEAN_MOTION_DDOT":"0.0000000000000","TLE_LINE2":"2 47349  53.0510 327.8981 0003626  13.5579 346.5535 15.71431407 43997","MEAN_ANOMALY":"346.5535","MEAN_ELEMENT_THEORY":"SGP4","LAUNCH_DATE":"2021-01-20","SEMIMAJOR_AXIS":"6732.942","ELEMENT_SET_NO":"999","ECCENTRICITY":"0.00036260","PERIAPSIS":"352.366","TLE_LINE1":"1 47349U 21005A   21306.46991382 -.00002811  00000-0 -16918-4 0  9992","TIME_SYSTEM":"UTC","OBJECT_TYPE":"PAYLOAD","EPOCH":"2021-11-02T11:16:40.554048","DECAY_DATE":null,"APOAPSIS":"357.249","NORAD_CAT_ID":"47349","MEAN_MOTION":"15.71431407","RA_OF_ASC_NODE":"327.8981","RCS_SIZE":"LARGE","ARG_OF_PERICENTER":"13.5579","REF_FRAME":"TEME","INCLINATION":"53.0510","MEAN_MOTION_DOT":"-0.00002811","OBJECT_NAME":"STARLINK-1952","OBJECT_ID":"2021-005A","EPHEMERIS_TYPE":"0","COUNTRY_CODE":"US","CLASSIFICATION_TYPE":"U","PERIOD":"91.636","BSTAR":"-0.00001691800000","FILE":"3197731","CENTER_NAME":"EARTH","REV_AT_EPOCH":"4399","SITE":"AFETR","GP_ID":"188738354"},{"GP_ID":"188742735","REV_AT_EPOCH":"4432","CENTER_NAME":"EARTH","FILE":"3197817","SITE":"AFETR","CLASSIFICATION_TYPE":"U","BSTAR":"0.00018921000000","PERIOD":"95.592","OBJECT_ID":"2021-005B","OBJECT_NAME":"STARLINK-2011","EPHEMERIS_TYPE":"0","INCLINATION":"53.0481","MEAN_MOTION_DOT":"0.00002538","COUNTRY_CODE":"US","MEAN_MOTION":"15.06399944","REF_FRAME":"TEME","ARG_OF_PERICENTER":"77.7018","RA_OF_ASC_NODE":"351.7539","RCS_SIZE":"LARGE","DECAY_DATE":null,"APOAPSIS":"548.170","NORAD_CAT_ID":"47350","TLE_LINE1":"1 47350U 21005B   21306.40650670  .00002538  00000-0  18921-3 0  9999","TIME_SYSTEM":"UTC","OBJECT_TYPE":"PAYLOAD","EPOCH":"2021-11-02T09:45:22.178880","LAUNCH_DATE":"2021-01-20","MEAN_MOTION_DDOT":"0.0000000000000","TLE_LINE2":"2 47350  53.0481 351.7539 0001381  77.7018 282.4126 15.06399944 44326","MEAN_ELEMENT_THEORY":"SGP4","MEAN_ANOMALY":"282.4126","PERIAPSIS":"546.257","ELEMENT_SET_NO":"999","SEMIMAJOR_AXIS":"6925.349","ECCENTRICITY":"0.00013810"},{"EPOCH":"2021-11-02T10:27:49.882464","TIME_SYSTEM":"UTC","OBJECT_TYPE":"PAYLOAD","TLE_LINE1":"1 47351U 21005C   21306.43599401  .00001493  00000-0  11909-3 0  9995","PERIAPSIS":"546.154","SEMIMAJOR_AXIS":"6925.325","ELEMENT_SET_NO":"999","ECCENTRICITY":"0.00014960","LAUNCH_DATE":"2021-01-20","MEAN_ELEMENT_THEORY":"SGP4","MEAN_ANOMALY":"294.4639","MEAN_MOTION_DDOT":"0.0000000000000","TLE_LINE2":"2 47351  53.0526 311.5605 0001496  65.6506 294.4639 15.06407655 44871","ARG_OF_PERICENTER":"65.6506","REF_FRAME":"TEME","RCS_SIZE":"LARGE","RA_OF_ASC_NODE":"311.5605","MEAN_MOTION":"15.06407655","APOAPSIS":"548.226","NORAD_CAT_ID":"47351","DECAY_DATE":null,"BSTAR":"0.00011909000000","PERIOD":"95.592","CLASSIFICATION_TYPE":"U","COUNTRY_CODE":"US","EPHEMERIS_TYPE":"0","OBJECT_ID":"2021-005C","OBJECT_NAME":"STARLINK-2017","MEAN_MOTION_DOT":"0.00001493","INCLINATION":"53.0526","GP_ID":"188737859","SITE":"AFETR","CENTER_NAME":"EARTH","REV_AT_EPOCH":"4487","FILE":"3197731"},{"MEAN_ELEMENT_THEORY":"SGP4","MEAN_ANOMALY":"264.8082","TLE_LINE2":"2 47352  53.0560 351.1816 0001143  95.3037 264.8082 15.06404937 43661","MEAN_MOTION_DDOT":"0.0000000000000","LAUNCH_DATE":"2021-01-20","SEMIMAJOR_AXIS":"6925.333","ELEMENT_SET_NO":"999","ECCENTRICITY":"0.00011430","PERIAPSIS":"546.407","TLE_LINE1":"1 47352U 21005D   21306.52078142  .00002427  00000-0  18176-3 0  9991","EPOCH":"2021-11-02T12:29:55.514688","TIME_SYSTEM":"UTC","OBJECT_TYPE":"PAYLOAD","DECAY_DATE":null,"NORAD_CAT_ID":"47352","APOAPSIS":"547.990","MEAN_MOTION":"15.06404937","RCS_SIZE":"LARGE","RA_OF_ASC_NODE":"351.1816","ARG_OF_PERICENTER":"95.3037","REF_FRAME":"TEME","INCLINATION":"53.0560","MEAN_MOTION_DOT":"0.00002427","EPHEMERIS_TYPE":"0","OBJECT_ID":"2021-005D","OBJECT_NAME":"STARLINK-2034","COUNTRY_CODE":"US","CLASSIFICATION_TYPE":"U","PERIOD":"95.592","BSTAR":"0.00018176000000","FILE":"3198350","CENTER_NAME":"EARTH","REV_AT_EPOCH":"4366","SITE":"AFETR","GP_ID":"188774827"},{"LAUNCH_DATE":"2021-01-20","TLE_LINE2":"2 47353  53.0549 295.4807 0001336  86.2120 273.9022 15.06397506 44462","MEAN_MOTION_DDOT":"0.0000000000000","MEAN_ELEMENT_THEORY":"SGP4","MEAN_ANOMALY":"273.9022","PERIAPSIS":"546.296","SEMIMAJOR_AXIS":"6925.356","ELEMENT_SET_NO":"999","ECCENTRICITY":"0.00013360","TLE_LINE1":"1 47353U 21005E   21306.67512705 -.00000420  00000-0 -92994-5 0  9991","OBJECT_TYPE":"PAYLOAD","TIME_SYSTEM":"UTC","EPOCH":"2021-11-02T16:12:10.977120","DECAY_DATE":null,"NORAD_CAT_ID":"47353","APOAPSIS":"548.146","MEAN_MOTION":"15.06397506","REF_FRAME":"TEME","ARG_OF_PERICENTER":"86.2120","RA_OF_ASC_NODE":"295.4807","RCS_SIZE":"LARGE","OBJECT_NAME":"STARLINK-2045","OBJECT_ID":"2021-005E","EPHEMERIS_TYPE":"0","INCLINATION":"53.0549","MEAN_MOTION_DOT":"-0.00000420","COUNTRY_CODE":"US","CLASSIFICATION_TYPE":"U","BSTAR":"-0.00000929940000","PERIOD":"95.592","REV_AT_EPOCH":"4446","CENTER_NAME":"EARTH","FILE":"3198350","SITE":"AFETR","GP_ID":"188775577"}];
